IRIDIUM 36              
1 24967U 97056C   24338.12043879  .00001264  00000+0  41801-3 0  9998
2 24967  86.3969 255.3132 0002075  78.8539 281.2892 14.37268093424056
IRIDIUM 39              
1 25042U 97069D   24338.14175580  .00001960  00000+0  51469-3 0  9998
2 25042  86.3895 295.1913 0015851 237.9521 122.0143 14.48678192420833
IRIDIUM 38              
1 25043U 97069E   24337.72456476  .00001480  00000+0  48559-3 0  9991
2 25043  86.3936 315.8358 0003545  58.4602 301.6941 14.37749297417724
IRIDIUM 42              
1 25077U 97077A   24337.76995463  .00001330  00000+0  45142-3 0  9994
2 25077  86.3942 321.7455 0002814  76.9862 283.1649 14.36013418413007
IRIDIUM 44              
1 25078U 97077B   24337.90564501  .00001432  00000+0  44997-3 0  9996
2 25078  86.3931 304.1269 0001713  33.9810 326.1498 14.39881185415455
IRIDIUM 45              
1 25104U 97082A   24337.88994275  .00021757  00000+0  99157-3 0  9994
2 25104  86.3615 142.4809 0138659 342.7638  16.8914 15.12243701422278
IRIDIUM 24              
1 25105U 97082B   24337.92110634  .00001259  00000+0  38018-3 0  9993
2 25105  86.3924 163.4907 0011925  16.3866 343.7717 14.41704280415187
IRIDIUM 51              
1 25262U 98018A   24338.02719809  .00038277  00000+0  13359-2 0  9998
2 25262  86.3907 151.6786 0116875 275.8996  82.8937 15.23072245417224
